#dP2024 12 13  0  0  0.00000000      96 __u+U IGS20 EXT  IAC
## 2344 432000.00000000   900.00000000 60657 0.0000000000000
+   52   G02G03G04G05G06G07G08G09G10G11G12G13G14G15G16G17G18
+        G19G20G21G22G23G24G25G26G27G28G29G30G31G32R01R02R03
+        R04R05R07R08R09R11R12R14R15R16R17R18R19R20R21R22R24
+        R26  0  0  0  0  0  0  0  0  0  0  0  0  0  0  0  0
+          0  0  0  0  0  0  0  0  0  0  0  0  0  0  0  0  0
++         7  7  8  7  7  7  7  9  7  7  7  7  7  8  8  7  8
++        11  9  7  7  7  7  6  7  8  7  8  7  7  7  9  8  8
++         8 10  7  8  8  9 10  7  9  9  8  8  8  8  8  9  8
++         7  0  0  0  0  0  0  0  0  0  0  0  0  0  0  0  0
++         0  0  0  0  0  0  0  0  0  0  0  0  0  0  0  0  0
%c M  cc GPS ccc cccc cccc cccc cccc ccccc ccccc ccccc ccccc
%c cc cc ccc ccc cccc cccc cccc cccc ccccc ccccc ccccc ccccc
%f  0.0000000  0.000000000  0.00000000000  0.000000000000000
%f  0.0000000  0.000000000  0.00000000000  0.000000000000000
%i    0    0    0    0      0      0      0      0         0
%i    0    0    0    0      0      0      0      0         0
/* IAC                                ULTRA-RAPID PREDICTION
/* S/V CLOCKS ARE ALIGNED TO GNSS TIME                      
/* G:C1WC2W R:C1PC2P E:C1XC5X C:C2IC6I J:C1CC2S             
/* PCV:IGS20_2317 OL/AL:FES2004  NONE     YN ORB:CoN CLK:CoN
*  2024 12 13 15 30  0.00000000
PG02 -23006.473311 -13676.706789    715.036984   -292.893447
PG03 -12522.363568 -10512.595555  20792.147682    623.635658
PG04 -21456.033647  -3091.358048  15465.623311    495.230579
PG05   6208.015841  23187.031407 -11475.870073   -195.891710
PG06  -5666.888410  13888.064049  21981.357077    -41.253390
PG07 -21956.100460  -3586.870469 -14303.333900    -15.756667
PG08 -12500.603814 -10698.690734 -21052.922780    437.517713
PG09 -24749.156370   5147.967747   8165.370741    485.392192
PG10  10235.032108 -21315.037522 -11517.644796   -232.918864
PG11   7082.081196  20072.019952  15964.476890   -752.576904
PG12  10721.020787  14800.399823  19004.298781   -558.116191
PG13   2888.580809  14808.970235 -22085.129208    689.813527
PG14 -12929.843328  18115.437407 -14271.479751    559.381563
PG15  13973.705128   9444.796832 -21069.210034    239.119705
PG16   -291.954589 -25277.936242  -7698.146741   -104.255212
PG17 -21545.950920  13725.964319   8045.464871    520.696898
PG18  20477.327318   1281.043012 -16960.177036   -660.341576
PG19 -13724.722861  15839.902412  15907.999961    573.529504
PG20    924.174979  26601.594357   1082.812399    367.926033
PG21 -20390.477629 -16914.640243  -5515.157251     95.822516
PG22  -9817.203466  23798.958129  -6767.664201    -86.089733
PG23  14510.443503  -8310.150822 -20534.600892    382.739999
PG24  21854.836785  15326.869151  -2606.970191   -473.762473
PG25  15329.929593     91.441635  21324.397050    498.139738
PG26   4188.835381 -25579.630849   4574.916200     -7.466722
PG27   -451.239609 -16144.786331 -21315.990193    -34.211504
PG28   7506.560767 -13277.691950  21729.981219   -507.047755
PG29  25207.597742  -2856.384393   8036.173335   -556.248108
PG30 -14792.745152   7877.509046 -20506.607194   -262.123456
PG31  -2265.348609 -18467.779869  18565.327884   -220.045858
PG32  18125.442201 -16180.864442  10706.284980   -559.629677
PR01  17479.282512 -18544.790578   1189.392678    107.642027
PR02   7317.601884 -17604.671072  16949.357476    -39.154234
PR03  -8020.128203  -7270.063784  23143.781004    113.175284
PR04 -18235.484278   6588.059544  16615.036013    268.261849
PR05 -19047.910187  16947.006004   1219.242246    142.126090
PR07   8203.442108   7039.949308 -23063.145262     96.861602
PR08  18281.666898  -6933.348644 -16298.185848     -6.122275
PR09   3705.280068  24416.242705  -6200.135897    226.013660
PR11  12193.734237   6631.294427  21402.590478      4.733263
PR12   6463.588540 -14151.860656  20227.217133     48.372739
PR14 -10754.608268 -20459.802359 -10805.006335     27.418247
PR15 -12084.172889  -4785.649537 -21937.166302     73.224718
PR16  -6368.247448  13973.517942 -20354.332236     31.598116
PR17 -19912.856990 -11300.930111 -11184.267351    148.193801
PR18 -24475.280107  -5225.564592   5081.987298    176.623426
PR19 -18210.598592   2097.503450  17743.012916   -301.781345
PR20   2430.914037  11583.633090  22606.367614   -123.172718
PR21  19113.735238  11710.263102  12208.003607   -159.229634
PR22  24215.379459   5035.993859  -6186.264355    -40.356139
PR24  -3423.313298 -11991.694677 -22224.085722    -83.903485
PR26  17578.589177  -5568.786209 -17613.720162   -132.779231
*  2024 12 13 15 45  0.00000000
PG02 -22787.232297 -13795.346093  -2128.446829   -292.885492
PG03 -12243.481119 -12834.353761  19641.471030    623.643740
PG04 -19797.475299  -3964.224966  17351.289885    495.236171
PG05   5974.800631  24323.181884  -8918.813609   -195.892749
PG06  -7711.669745  12437.114018  22237.649339    -41.279297
PG07 -23130.194883  -4660.082683 -12093.186256    -15.755495
PG08 -10376.833072 -11836.645804 -21554.208771    437.525856
PG09 -23876.870199   4453.345515  10731.878464    485.406790
PG10  10277.392507 -19809.655841 -13905.717018   -232.932640
PG11   5466.600789  19022.524393  17779.984889   -752.577236
PG12  10257.619279  16893.302678  17480.758662   -558.118349
PG13    529.551175  15497.711360 -21768.850899    689.814883
PG14 -12969.846960  16334.640716 -16261.911253    559.388471
PG15  12069.596356  10803.184875 -21586.965943    239.123778
PG16     94.370740 -25913.050699  -4940.248844   -104.246471
PG17 -22284.305070  13797.241379   5326.513021    520.682635
PG18  21873.939964   2460.366781 -14995.093406   -660.341194
PG19 -15432.804956  16218.996377  13804.107016    573.533298
PG20    644.474601  26352.034537   3903.524040    367.925758
PG21 -19605.556806 -16666.334946  -8166.167052     95.826591
PG22  -9871.442422  22809.341517  -9399.529243    -86.091965
PG23  14440.630412  -5902.054176 -21417.027907    382.746976
PG24  21363.252830  15387.740053  -5336.568252   -473.759720
PG25  15176.376368   2605.370375  21299.531064    498.139415
PG26   4551.223545 -24871.107425   7277.764204     -7.479349
PG27   1692.796144 -17080.534124 -20457.414072    -34.211208
PG28   9591.080209 -11919.837413  21697.475086   -507.057444
PG29  24281.702884  -2285.021457  10625.936944   -556.245117
PG30 -16649.960761   6472.894045 -19584.088176   -262.116125
PG31   -354.802984 -17255.552946  19839.750441   -220.045167
PG32  19175.545464 -16429.719206   8114.431225   -559.624217
PR01  17331.936164 -18610.681297  -2024.189950    107.643232
PR02   8601.580293 -19066.990984  14588.391212    -39.154086
PR03  -6038.288947  -9301.186811  23012.490487    113.175966
PR04 -16611.326615   5137.128297  18700.757157    268.263389
PR05 -18670.618430  16834.522315   4422.973543    142.126552
PR07   6210.415563   9079.803156 -22977.847307     96.862252
PR08  16694.569969  -5469.800178 -18416.415847     -6.122262
PR09   3491.741091  23483.338778  -9202.156076    226.015644
PR11  12968.466863   9066.036660  20007.157139      4.732247
PR12   7117.847845 -11661.968907  21555.043383     48.373151
PR14 -11184.446195 -21535.260615  -7887.796948     27.418321
PR15 -12852.040345  -7309.254903 -20775.454976     73.224442
PR16  -7029.512912  11463.781883 -21665.344834     31.598422
PR17 -18449.622563 -10758.239236 -13899.195652    148.196765
PR18 -24940.536382  -5144.809475   1885.023998    176.625164
PR19 -20214.446121   1632.224060  15476.013329   -301.782629
PR20   -254.044259  10704.530892  23165.597592   -123.173197
PR21  17546.984000  11115.122108  14833.452118   -159.232535
PR22  24805.304782   5066.070063  -3040.257636    -40.367570
PR24   -732.520758 -11262.819575 -22848.938858    -83.904854
PR26  15907.983155  -3990.575745 -19522.998629   -132.778939
EOF
